{
    "links": {
        "self": "http://www.neowsapp.com/rest/v1/neo/3646912?api_key=iIulBulltgU6a56xZRHN4H3l9WmuAYTsLGpBGhQ2"
    },
    "id": "3646912",
    "neo_reference_id": "3646912",
    "name": "(2013 RF)",
    "designation": "2013 RF",
    "nasa_jpl_url": "http://ssd.jpl.nasa.gov/sbdb.cgi?sstr=3646912",
    "absolute_magnitude_h": 22.9,
    "estimated_diameter": {
        "kilometers": {
            "estimated_diameter_min": 0.0699125232,
            "estimated_diameter_max": 0.1563291544
        },
        "meters": {
            "estimated_diameter_min": 69.9125232246,
            "estimated_diameter_max": 156.3291544087
        },
        "miles": {
            "estimated_diameter_min": 0.0434416145,
            "estimated_diameter_max": 0.097138403
        },
        "feet": {
            "estimated_diameter_min": 229.3718026961,
            "estimated_diameter_max": 512.8909429502
        }
    },
    "is_potentially_hazardous_asteroid": false,
    "close_approach_data": [
        {
            "close_approach_date": "1984-03-02",
            "close_approach_date_full": "1984-Mar-02 10:54",
            "epoch_date_close_approach": 447072840000,
            "relative_velocity": {
                "kilometers_per_second": "23.8259203667",
                "kilometers_per_hour": "85773.3133200412",
                "miles_per_hour": "53296.2012682222"
            },
            "miss_distance": {
                "astronomical": "0.1675997528",
                "lunar": "65.1963038392",
                "kilometers": "25072566.031406536",
                "miles": "15579370.1069247568"
            },
            "orbiting_body": "Earth"
        },
        {
            "close_approach_date": "2013-09-07",
            "close_approach_date_full": "2013-Sep-07 19:10",
            "epoch_date_close_approach": 1378581000000,
            "relative_velocity": {
                "kilometers_per_second": "19.118266376",
                "kilometers_per_hour": "68825.7589534423",
                "miles_per_hour": "42765.6500563764"
            },
            "miss_distance": {
                "astronomical": "0.0412181511",
                "lunar": "16.0338607779",
                "kilometers": "6166147.609898157",
                "miles": "3831466.4573302866"
            },
            "orbiting_body": "Earth"
        },
        {
            "close_approach_date": "2018-08-26",
            "close_approach_date_full": "2018-Aug-26 05:51",
            "epoch_date_close_approach": 1535262660000,
            "relative_velocity": {
                "kilometers_per_second": "26.005857979",
                "kilometers_per_hour": "93621.0887243748",
                "miles_per_hour": "58172.5037132094"
            },
            "miss_distance": {
                "astronomical": "0.2509625904",
                "lunar": "97.6244476656",
                "kilometers": "37543468.973522448",
                "miles": "23328429.8664798624"
            },
            "orbiting_body": "Earth"
        },
        {
            "close_approach_date": "2023-08-15",
            "close_approach_date_full": "2023-Aug-15 03:19",
            "epoch_date_close_approach": 1692069540000,
            "relative_velocity": {
                "kilometers_per_second": "32.7665533214",
                "kilometers_per_hour": "117959.5919569158",
                "miles_per_hour": "73295.5031245625"
            },
            "miss_distance": {
                "astronomical": "0.4834163905",
                "lunar": "188.0489759045",
                "kilometers": "72318062.341888235",
                "miles": "44936360.212538243"
            },
            "orbiting_body": "Earth"
        }
    ],
    "orbital_data": {
        "orbit_id": "13",
        "orbit_determination_date": "2017-04-06 08:44:57",
        "first_observation_date": "2013-08-15",
        "last_observation_date": "2013-09-06",
        "data_arc_in_days": 22,
        "observations_used": 69,
        "orbit_uncertainty": "7",
        "minimum_orbit_intersection": ".00771537",
        "jupiter_tisserand_invariant": "3.729",
        "epoch_osculation": "2459000.5",
        "eccentricity": ".6414573818231364",
        "semi_major_axis": "1.833062820899195",
        "inclination": "11.98488411581585",
        "ascending_node_longitude": "154.8879623429702",
        "orbital_period": "906.4929905300255",
        "perihelion_distance": ".6572311430878647",
        "perihelion_argument": "275.830277032914",
        "aphelion_distance": "3.008894498710526",
        "perihelion_time": "2459311.220002530150",
        "mean_anomaly": "236.6022439451515",
        "mean_motion": ".3971348965307591",
        "equinox": "J2000",
        "orbit_class": {
            "orbit_class_type": "APO",
            "orbit_class_description": "Near-Earth asteroid orbits which cross the Earth’s orbit similar to that of 1862 Apollo",
            "orbit_class_range": "a (semi-major axis) > 1.0 AU; q (perihelion) < 1.017 AU"
        }
    },
    "is_sentry_object": false
}